IRIDIUM 166             
1 43570U 18061B   25096.47433298  .00000008  00000+0 -42431-5 0  9994
2 43570  86.3961 239.1796 0001789 102.3335 257.8061 14.34218027350800
IRIDIUM 158             
1 43571U 18061C   25096.86123219  .00000029  00000+0  34029-5 0  9993
2 43571  86.3962 239.0275 0001970  92.0774 268.0647 14.34217545350838
IRIDIUM 165             
1 43572U 18061D   25096.46799156  .00000028  00000+0  29113-5 0  9996
2 43572  86.3963 239.2297 0002134 102.3252 257.8183 14.34217571350790
IRIDIUM 155             
1 43573U 18061E   25095.94155479  .00000151  00000+0  47009-4 0  9993
2 43573  86.3960 239.3407 0001873  91.1361 269.0050 14.34218577350680
IRIDIUM 154             
1 43574U 18061F   25096.48067217  .00000673  00000+0  23317-3 0  9990
2 43574  86.3965 239.2273 0002157  94.9307 265.2135 14.34221938350815
IRIDIUM 163             
1 43575U 18061G   25096.88026015 -.00000157  00000+0 -63132-4 0  9995
2 43575  86.3961 238.9897 0002056  91.1434 268.9997 14.34216960350846
IRIDIUM 156             
1 43576U 18061H   25095.94789798  .00000044  00000+0  86409-5 0  9992
2 43576  86.3960 239.3859 0001735  95.3162 264.8231 14.34218027350703
IRIDIUM 164             
1 43577U 18061J   25096.48701949  .00000028  00000+0  28760-5 0  9993
2 43577  86.3961 239.1938 0002208 102.6665 257.4778 14.34217587350824
